[{"OBJECT_NAME":"STARLINK-5733","OBJECT_ID":"2023-083BB","EPOCH":"2026-03-09T22:00:01.999584","MEAN_MOTION":15.06149978,"ECCENTRICITY":5.681e-5,"INCLINATION":43.0007,"RA_OF_ASC_NODE":67.2319,"ARG_OF_PERICENTER":318.587,"MEAN_ANOMALY":202.4702,"EPHEMERIS_TYPE":0,"CLASSIFICATION_TYPE":"U","NORAD_CAT_ID":56925,"ELEMENT_SET_NO":999,"REV_AT_EPOCH":577,"BSTAR":0.0040606094,"MEAN_MOTION_DOT":0.00060736,"MEAN_MOTION_DDOT":0},{"OBJECT_NAME":"CZ-6A DEB","OBJECT_ID":"2024-140VD","EPOCH":"2026-03-09T13:59:50.309088","MEAN_MOTION":14.67840458,"ECCENTRICITY":0.0170049,"INCLINATION":89.0158,"RA_OF_ASC_NODE":282.3552,"ARG_OF_PERICENTER":150.1699,"MEAN_ANOMALY":210.9347,"EPHEMERIS_TYPE":0,"CLASSIFICATION_TYPE":"U","NORAD_CAT_ID":61340,"ELEMENT_SET_NO":999,"REV_AT_EPOCH":8091,"BSTAR":0.00043795,"MEAN_MOTION_DOT":3.137e-5,"MEAN_MOTION_DDOT":0}]
